{
    "links": {
        "self": "http://www.neowsapp.com/rest/v1/neo/3702718?api_key=iIulBulltgU6a56xZRHN4H3l9WmuAYTsLGpBGhQ2"
    },
    "id": "3702718",
    "neo_reference_id": "3702718",
    "name": "(2014 XG32)",
    "designation": "2014 XG32",
    "nasa_jpl_url": "http://ssd.jpl.nasa.gov/sbdb.cgi?sstr=3702718",
    "absolute_magnitude_h": 25.3,
    "estimated_diameter": {
        "kilometers": {
            "estimated_diameter_min": 0.0231502122,
            "estimated_diameter_max": 0.0517654482
        },
        "meters": {
            "estimated_diameter_min": 23.150212221,
            "estimated_diameter_max": 51.7654482198
        },
        "miles": {
            "estimated_diameter_min": 0.0143848705,
            "estimated_diameter_max": 0.0321655483
        },
        "feet": {
            "estimated_diameter_min": 75.9521422633,
            "estimated_diameter_max": 169.8341531374
        }
    },
    "is_potentially_hazardous_asteroid": false,
    "close_approach_data": [
        {
            "close_approach_date": "2014-12-06",
            "close_approach_date_full": "2014-Dec-06 08:22",
            "epoch_date_close_approach": 1417854120000,
            "relative_velocity": {
                "kilometers_per_second": "11.6802315786",
                "kilometers_per_hour": "42048.8336828776",
                "miles_per_hour": "26127.5100181191"
            },
            "miss_distance": {
                "astronomical": "0.0918299226",
                "lunar": "35.7218398914",
                "kilometers": "13737560.823224862",
                "miles": "8536124.4702006156"
            },
            "orbiting_body": "Earth"
        }
    ],
    "orbital_data": {
        "orbit_id": "4",
        "orbit_determination_date": "2019-07-11 06:08:32",
        "first_observation_date": "2014-12-11",
        "last_observation_date": "2014-12-13",
        "data_arc_in_days": 2,
        "observations_used": 21,
        "orbit_uncertainty": "8",
        "minimum_orbit_intersection": ".0916396",
        "jupiter_tisserand_invariant": "4.734",
        "epoch_osculation": "2457004.5",
        "eccentricity": ".2345628537733659",
        "semi_major_axis": "1.368163564358873",
        "inclination": "20.92807043002167",
        "ascending_node_longitude": "77.90257811416826",
        "orbital_period": "584.5281859083475",
        "perihelion_distance": "1.047243214274116",
        "perihelion_argument": "326.7334210481361",
        "aphelion_distance": "1.689083914443631",
        "perihelion_time": "2456968.592022583602",
        "mean_anomaly": "22.11505310015997",
        "mean_motion": ".6158813358855668",
        "equinox": "J2000",
        "orbit_class": {
            "orbit_class_type": "AMO",
            "orbit_class_description": "Near-Earth asteroid orbits similar to that of 1221 Amor",
            "orbit_class_range": "1.017 AU < q (perihelion) < 1.3 AU"
        }
    },
    "is_sentry_object": false
}